[{"OBJECT_NAME":"STARLINK-32680","OBJECT_ID":"2024-249Q","EPOCH":"2026-03-09T01:09:56.856672","MEAN_MOTION":15.27568104,"ECCENTRICITY":0.00021552,"INCLINATION":42.999,"RA_OF_ASC_NODE":317.8607,"ARG_OF_PERICENTER":286.6468,"MEAN_ANOMALY":73.4147,"EPHEMERIS_TYPE":0,"CLASSIFICATION_TYPE":"U","NORAD_CAT_ID":62423,"ELEMENT_SET_NO":999,"REV_AT_EPOCH":6771,"BSTAR":0.0014731017,"MEAN_MOTION_DOT":0.00040484,"MEAN_MOTION_DDOT":0},{"OBJECT_NAME":"TEVEL2-9","OBJECT_ID":"2025-052AD","EPOCH":"2026-03-09T16:51:18.321696","MEAN_MOTION":15.28633834,"ECCENTRICITY":0.000799,"INCLINATION":97.4057,"RA_OF_ASC_NODE":324.3929,"ARG_OF_PERICENTER":124.2475,"MEAN_ANOMALY":235.9522,"EPHEMERIS_TYPE":0,"CLASSIFICATION_TYPE":"U","NORAD_CAT_ID":63237,"ELEMENT_SET_NO":999,"REV_AT_EPOCH":5481,"BSTAR":0.00067240159,"MEAN_MOTION_DOT":0.00018694,"MEAN_MOTION_DDOT":0}]
