STARLINK-32680          
1 62423U 24249Q   26068.04857473  .00040484  00000+0  14731-2 0  9995
2 62423  42.9990 317.8607 0002155 286.6468  73.4147 15.27568104 67713
TEVEL2-9                
1 63237U 25052AD  26068.70229538  .00018694  00000+0  67240-3 0  9992
2 63237  97.4057 324.3929 0007990 124.2475 235.9522 15.28633834 54816
